{"type": "FeatureCollection", "features": [ {"type": "Feature", "properties": {"norad_id": 66052, "name": "HRC MONOBLOCK CAMERA", "group": "stations", "lat": 17.060459317942293, "lon": 86.72067454128795, "alt_km": 401.0083974027111, "timestamp": "2025-12-26T12:57:38.011723+00:00", "meta": {"OBJECT_NAME": "HRC MONOBLOCK CAMERA", "OBJECT_ID": "1998-067XR", "EPOCH": "2025-12-26T05:09:17.689248", "MEAN_MOTION": 15.5507279, "ECCENTRICITY": 0.00019885, "INCLINATION": 51.6302, "RA_OF_ASC_NODE": 74.2731, "ARG_OF_PERICENTER": 250.8645, "MEAN_ANOMALY": 109.213, "EPHEMERIS_TYPE": 0, "CLASSIFICATION_TYPE": "U", "NORAD_CAT_ID": 66052, "ELEMENT_SET_NO": 999, "REV_AT_EPOCH": 1093, "BSTAR": 0.00051624827, "MEAN_MOTION_DOT": 0.00035049, "MEAN_MOTION_DDOT": 0}, "tle": {"line1": "1 66052U 98067XR  25360.21478807  .00035049  00000+0  51625-3 0  9994", "line2": "2 66052  51.6302  74.2731 0001988 250.8645 109.2130 15.55072790 10938"}}, "geometry": {"type": "Point", "coordinates": [86.72067454128795, 17.060459317942293]}}, {"type": "Feature", "properties": {"norad_id": 66174, "name": "HTV-X1", "group": "stations", "lat": 22.73386220727058, "lon": 93.51881635895481, "alt_km": 414.3697063872278, "timestamp": "2025-12-26T12:57:38.011734+00:00", "meta": {"OBJECT_NAME": "HTV-X1", "OBJECT_ID": "2025-241A", "EPOCH": "2025-12-26T05:05:45.767328", "MEAN_MOTION": 15.49833819, "ECCENTRICITY": 0.00032367, "INCLINATION": 51.6319, "RA_OF_ASC_NODE": 75.7553, "ARG_OF_PERICENTER": 303.1667, "MEAN_ANOMALY": 56.9011, "EPHEMERIS_TYPE": 0, "CLASSIFICATION_TYPE": "U", "NORAD_CAT_ID": 66174, "ELEMENT_SET_NO": 999, "REV_AT_EPOCH": 51, "BSTAR": 0.00025187037, "MEAN_MOTION_DOT": 0.00013862, "MEAN_MOTION_DDOT": 0}, "tle": {"line1": "1 66174U 25241A   25360.21233527  .00013862  00000+0  25187-3 0  9994", "line2": "2 66174  51.6319  75.7553 0003236 303.1667  56.9011 15.49833819   512"}}, "geometry": {"type": "Point", "coordinates": [93.51881635895481, 22.73386220727058]}}, {"type": "Feature", "properties": {"norad_id": 66515, "name": "SZ-21 MODULE", "group": "stations", "lat": 21.87751995297258, "lon": -41.1474376936491, "alt_km": 373.0306139049935, "timestamp": "2025-12-26T12:57:38.011744+00:00", "meta": {"OBJECT_NAME": "SZ-21 MODULE", "OBJECT_ID": "2025-246C", "EPOCH": "2025-12-25T04:36:53.601984", "MEAN_MOTION": 15.63137537, "ECCENTRICITY": 0.0004589, "INCLINATION": 41.4767, "RA_OF_ASC_NODE": 300.0489, "ARG_OF_PERICENTER": 327.9877, "MEAN_ANOMALY": 32.0683, "EPHEMERIS_TYPE": 0, "CLASSIFICATION_TYPE": "U", "NORAD_CAT_ID": 66515, "ELEMENT_SET_NO": 999, "REV_AT_EPOCH": 639, "BSTAR": 0.00031272, "MEAN_MOTION_DOT": 0.00029146, "MEAN_MOTION_DDOT": 0}, "tle": {"line1": "1 66515U 25246C   25359.19228706  .00029146  00000+0  31272-3 0  9990", "line2": "2 66515  41.4767 300.0489 0004589 327.9877  32.0683 15.63137537  6398"}}, "geometry": {"type": "Point", "coordinates": [-41.1474376936491, 21.87751995297258]}}, {"type": "Feature", "properties": {"norad_id": 66645, "name": "SHENZHOU-22", "group": "stations", "lat": -26.543352946958535, "lon": -101.55685395688873, "alt_km": 396.3400628278514, "timestamp": "2025-12-26T12:57:38.011754+00:00", "meta": {"OBJECT_NAME": "SHENZHOU-22", "OBJECT_ID": "2025-272A", "EPOCH": "2025-12-26T05:27:30.670848", "MEAN_MOTION": 15.59708409, "ECCENTRICITY": 0.00085179, "INCLINATION": 41.468, "RA_OF_ASC_NODE": 294.7909, "ARG_OF_PERICENTER": 149.5046, "MEAN_ANOMALY": 210.6289, "EPHEMERIS_TYPE": 0, "CLASSIFICATION_TYPE": "U", "NORAD_CAT_ID": 66645, "ELEMENT_SET_NO": 999, "REV_AT_EPOCH": 26598, "BSTAR": 0.00023601706, "MEAN_MOTION_DOT": 0.00019151, "MEAN_MOTION_DDOT": 0}, "tle": {"line1": "1 66645U 25272A   25360.22743832  .00019151  00000+0  23602-3 0  9994", "line2": "2 66645  41.4680 294.7909 0008517 149.5046 210.6289 15.59708409265988"}}, "geometry": {"type": "Point", "coordinates": [-101.55685395688873, -26.543352946958535]}}, {"type": "Feature", "properties": {"norad_id": 66664, "name": "SOYUZ-MS 28", "group": "stations", "lat": 22.733863642021443, "lon": 93.51881777380314, "alt_km": 414.3697062308356, "timestamp": "2025-12-26T12:57:38.011764+00:00", "meta": {"OBJECT_NAME": "SOYUZ-MS 28", "OBJECT_ID": "2025-275A", "EPOCH": "2025-12-26T05:05:45.767328", "MEAN_MOTION": 15.49833819, "ECCENTRICITY": 0.00032367, "INCLINATION": 51.6319, "RA_OF_ASC_NODE": 75.7553, "ARG_OF_PERICENTER": 303.1667, "MEAN_ANOMALY": 56.9011, "EPHEMERIS_TYPE": 0, "CLASSIFICATION_TYPE": "U", "NORAD_CAT_ID": 66664, "ELEMENT_SET_NO": 999, "REV_AT_EPOCH": 128, "BSTAR": 0.00025187037, "MEAN_MOTION_DOT": 0.00013862, "MEAN_MOTION_DDOT": 0}, "tle": {"line1": "1 66664U 25275A   25360.21233527  .00013862  00000+0  25187-3 0  9995", "line2": "2 66664  51.6319  75.7553 0003236 303.1667  56.9011 15.49833819  1281"}}, "geometry": {"type": "Point", "coordinates": [93.51881777380314, 22.733863642021443]}}, {"type": "Feature", "properties": {"norad_id": 66906, "name": "1998-067XS", "group": "stations", "lat": 41.91761648018378, "lon": -151.39752128036957, "alt_km": 408.76572932483305, "timestamp": "2025-12-26T12:57:38.011774+00:00", "meta": {"OBJECT_NAME": "1998-067XS", "OBJECT_ID": "1998-067XS", "EPOCH": "2025-12-26T06:15:17.316576", "MEAN_MOTION": 15.5130022, "ECCENTRICITY": 0.00026696, "INCLINATION": 51.6322, "RA_OF_ASC_NODE": 75.3293, "ARG_OF_PERICENTER": 271.0578, "MEAN_ANOMALY": 89.0106, "EPHEMERIS_TYPE": 0, "CLASSIFICATION_TYPE": "U", "NORAD_CAT_ID": 66906, "ELEMENT_SET_NO": 999, "REV_AT_EPOCH": 371, "BSTAR": 0.00043777364, "MEAN_MOTION_DOT": 0.00025789, "MEAN_MOTION_DDOT": 0}, "tle": {"line1": "1 66906U 98067XS  25360.26061709  .00025789  00000+0  43777-3 0  9995", "line2": "2 66906  51.6322  75.3293 0002669 271.0578  89.0106 15.51300220  3714"}}, "geometry": {"type": "Point", "coordinates": [-151.39752128036957, 41.91761648018378]}}, {"type": "Feature", "properties": {"norad_id": 66907, "name": "1998-067XT", "group": "stations", "lat": -18.78901705579144, "lon": -90.59771690950727, "alt_km": 410.8260515232023, "timestamp": "2025-12-26T12:57:38.011784+00:00", "meta": {"OBJECT_NAME": "1998-067XT", "OBJECT_ID": "1998-067XT", "EPOCH": "2025-12-24T10:39:56.166048", "MEAN_MOTION": 15.52879993, "ECCENTRICITY": 0.00038856, "INCLINATION": 51.6313, "RA_OF_ASC_NODE": 84.2012, "ARG_OF_PERICENTER": 298.2919, "MEAN_ANOMALY": 61.7678, "EPHEMERIS_TYPE": 0, "CLASSIFICATION_TYPE": "U", "NORAD_CAT_ID": 66907, "ELEMENT_SET_NO": 999, "REV_AT_EPOCH": 343, "BSTAR": 0.0010726177, "MEAN_MOTION_DOT": 0.00067981, "MEAN_MOTION_DDOT": 0}, "tle": {"line1": "1 66907U 98067XT  25358.44440007  .00067981  00000+0  10726-2 0  9992", "line2": "2 66907  51.6313  84.2012 0003885 298.2919  61.7678 15.52879993  3433"}}, "geometry": {"type": "Point", "coordinates": [-90.59771690950727, -18.78901705579144]}}, {"type": "Feature", "properties": {"norad_id": 66908, "name": "1998-067XU", "group": "stations", "lat": -23.599218915201636, "lon": -85.99344766333849, "alt_km": 410.8640067045799, "timestamp": "2025-12-26T12:57:38.011794+00:00", "meta": {"OBJECT_NAME": "1998-067XU", "OBJECT_ID": "1998-067XU", "EPOCH": "2025-12-26T05:52:50.075328", "MEAN_MOTION": 15.53197536, "ECCENTRICITY": 0.00038191, "INCLINATION": 51.6316, "RA_OF_ASC_NODE": 75.226, "ARG_OF_PERICENTER": 307.4311, "MEAN_ANOMALY": 52.6331, "EPHEMERIS_TYPE": 0, "CLASSIFICATION_TYPE": "U", "NORAD_CAT_ID": 66908, "ELEMENT_SET_NO": 999, "REV_AT_EPOCH": 371, "BSTAR": 0.00091736042, "MEAN_MOTION_DOT": 0.00058677, "MEAN_MOTION_DDOT": 0}, "tle": {"line1": "1 66908U 98067XU  25360.24502402  .00058677  00000+0  91736-3 0  9995", "line2": "2 66908  51.6316  75.2260 0003819 307.4311  52.6331 15.53197536  3711"}}, "geometry": {"type": "Point", "coordinates": [-85.99344766333849, -23.599218915201636]}}, {"type": "Feature", "properties": {"norad_id": 66909, "name": "SILVERSAT", "group": "stations", "lat": -30.975687527186736, "lon": -77.86741000911982, "alt_km": 410.3423048532359, "timestamp": "2025-12-26T12:57:38.011805+00:00", "meta": {"OBJECT_NAME": "SILVERSAT", "OBJECT_ID": "1998-067XV", "EPOCH": "2025-12-26T05:50:15.051264", "MEAN_MOTION": 15.5347206, "ECCENTRICITY": 0.00038112, "INCLINATION": 51.6312, "RA_OF_ASC_NODE": 75.214, "ARG_OF_PERICENTER": 312.9233, "MEAN_ANOMALY": 47.1437, "EPHEMERIS_TYPE": 0, "CLASSIFICATION_TYPE": "U", "NORAD_CAT_ID": 66909, "ELEMENT_SET_NO": 999, "REV_AT_EPOCH": 371, "BSTAR": 0.0010732725, "MEAN_MOTION_DOT": 0.00069517, "MEAN_MOTION_DDOT": 0}, "tle": {"line1": "1 66909U 98067XV  25360.24322976  .00069517  00000+0  10733-2 0  9994", "line2": "2 66909  51.6312  75.2140 0003811 312.9233  47.1437 15.53472060  3715"}}, "geometry": {"type": "Point", "coordinates": [-77.86741000911982, -30.975687527186736]}}, {"type": "Feature", "properties": {"norad_id": 66910, "name": "1998-067XW", "group": "stations", "lat": -36.79900535523161, "lon": -69.93540544697689, "alt_km": 409.38157344779665, "timestamp": "2025-12-26T12:57:38.011815+00:00", "meta": {"OBJECT_NAME": "1998-067XW", "OBJECT_ID": "1998-067XW", "EPOCH": "2025-12-26T05:47:57.385824", "MEAN_MOTION": 15.53373617, "ECCENTRICITY": 0.00037621, "INCLINATION": 51.6294, "RA_OF_ASC_NODE": 75.2017, "ARG_OF_PERICENTER": 284.0151, "MEAN_ANOMALY": 76.0421, "EPHEMERIS_TYPE": 0, "CLASSIFICATION_TYPE": "U", "NORAD_CAT_ID": 66910, "ELEMENT_SET_NO": 999, "REV_AT_EPOCH": 371, "BSTAR": 0.00096718956, "MEAN_MOTION_DOT": 0.00062317, "MEAN_MOTION_DDOT": 0}, "tle": {"line1": "1 66910U 98067XW  25360.24163641  .00062317  00000+0  96719-3 0  9998", "line2": "2 66910  51.6294  75.2017 0003762 284.0151  76.0421 15.53373617  3714"}}, "geometry": {"type": "Point", "coordinates": [-69.93540544697689, -36.79900535523161]}}]}